49214,ONEWEB-0350,2021,109.63,148.0,+,87.89,Active,1,LEO,Kazakhstan,UK,Commercial,Communications,Soyuz,1 49214U 21083AE  25054.41985557 -.00000144  00000+0 -42935-3 0  9990,2 49214  87.8886  55.3915 0001782  78.4726 281.6603 13.13470761169383,13.13470761,0.0001782,LEO
49215,ONEWEB-0351,2021,109.03,148.0,+,87.93,Active,1,LEO,Kazakhstan,UK,Commercial,Communications,Soyuz,1 49215U 21083AF  25054.85504794 -.00000131  00000+0 -35386-3 0  9997,2 49215  87.9305   9.6143 0002725  79.1196 281.0244 13.20772654174940,13.20772654,0.0002725,LEO
49216,ONEWEB-0352,2021,109.63,148.0,+,87.89,Active,1,LEO,Kazakhstan,UK,Commercial,Communications,Soyuz,1 49216U 21083AG  25054.47697731 -.00000166  00000+0 -48924-3 0  9990,2 49216  87.8891  55.4182 0002308  85.3350 274.8043 13.13471349169489,13.13471349,0.0002308,LEO
49217,ONEWEB-0354,2021,109.03,148.0,+,87.93,Active,1,LEO,Kazakhstan,UK,Commercial,Communications,Soyuz,1 49217U 21083AH  25054.80469612  .00000110  00000+0  23930-3 0  9990,2 49217  87.9308   9.6185 0001767  70.5737 289.5587 13.20772589174975,13.20772589,0.0001767,LEO
49218,ONEWEB-0355,2021,109.63,148.0,+,87.89,Active,1,LEO,Kazakhstan,UK,Commercial,Communications,Soyuz,1 49218U 21083AJ  25054.73567698  .00000110  00000+0  26760-3 0  9990,2 49218  87.8889  55.3653 0001975  83.0692 277.0662 13.13470042169394,13.13470042,0.0001975,LEO
49219,ONEWEB-0357,2021,109.03,148.0,+,87.93,Active,1,LEO,Kazakhstan,UK,Commercial,Communications,Soyuz,1 49219U 21083AK  25054.80154352  .00000070  00000+0  14146-3 0  9998,2 49219  87.9305   9.6290 0002036  78.1057 282.0305 13.20771629174969,13.20771629,0.0002036,LEO
49279,ONEWEB-0332,2021,109.55,148.0,+,87.9,Active,1,LEO,Russia,UK,Commercial,Communications,Soyuz,1 49279U 21090A   25054.20942360  .00000260  00000+0  66760-3 0  9990,2 49279  87.9034  24.9525 0002063  89.8528 270.2838 13.14501785164659,13.14501785,0.0002063,LEO
49280,ONEWEB-0347,2021,109.03,148.0,+,87.93,Active,1,LEO,Russia,UK,Commercial,Communications,Soyuz,1 49280U 21090B   25054.41328469  .00000059  00000+0  11287-3 0  9993,2 49280  87.9307   9.7113 0002029  93.2787 266.8579 13.20771926167846,13.20771926,0.0002029,LEO
